SAR-LUPE 2              
1 31797U 07030A   26200.57664378  .00019087  00000+0  29488-3 0  9991
2 31797  98.1063 309.1473 0005132 204.8285 155.2721 15.54159115 61965
SAPPHIRE                
1 39088U 13009C   26200.57922919  .00000024  00000+0  23278-4 0  9996
2 39088  98.4279  19.2684 0011845 147.5256 212.6661 14.35248205701228
PRAETORIAN SDA_602      
1 65565U 25203A   26200.62862958  .00000071  00000+0  53490-4 0  9997
2 65565  81.3049 340.7325 0007137 107.5488 252.6449 13.83888417 43188
PRAETORIAN SDA_603      
1 65566U 25203B   26200.43979177  .00000099  00000+0  78195-4 0  9998
2 65566  81.3054 340.8287 0010793 104.6421 255.5933 13.83962167 43163
PRAETORIAN SDA_604      
1 65567U 25203C   26200.48015297  .00000067  00000+0  50603-4 0  9997
2 65567  81.3071 341.2541 0006657 111.7596 248.4269 13.83050565 43148
PRAETORIAN SDA_605      
1 65568U 25203D   26200.43937726  .00000067  00000+0  50295-4 0  9990
2 65568  81.3036 340.9297 0009370 103.2073 257.0129 13.83200554 43152
PRAETORIAN SDA_606      
1 65569U 25203E   26200.64155829  .00000035  00000+0  20985-4 0  9998
2 65569  81.3073 340.9827 0007247 105.9953 254.2002 13.83200191 43178
PRAETORIAN SDA_607      
1 65570U 25203F   26200.63012314  .00000147  00000+0  12190-3 0  9992
2 65570  81.3057 340.6088 0010039 103.9986 256.2287 13.83759018 43191
PRAETORIAN SDA_608      
1 65571U 25203G   26200.46784589  .00000058  00000+0  41474-4 0  9993
2 65571  81.3025 340.9207 0007126 110.3655 249.8267 13.83819843 43156
PRAETORIAN SDA_609      
1 65572U 25203H   26200.46361571  .00000064  00000+0  47052-4 0  9991
2 65572  81.3068 340.9020 0007999 104.9593 255.2450 13.84211994 43165
PRAETORIAN SDA_610      
1 65573U 25203J   26200.45064210  .00000074  00000+0  56715-4 0  9998
2 65573  81.3026 340.9016 0007875 109.8084 250.3922 13.83528713 43155
PRAETORIAN SDA_611      
1 65574U 25203K   26200.46022157 -.00000183  00000+0 -17775-3 0  9999
2 65574  81.3033 341.0770 0006770 114.2115 245.9749 13.83310948 43146
PRAETORIAN SDA_612      
1 65575U 25203L   26200.62628195  .00000086  00000+0  65040-4 0  9991
2 65575  81.3049 340.4303 0010421 104.2775 255.9541 13.85041592 43204
PRAETORIAN SDA_613      
1 65576U 25203M   26200.62436153  .00000069  00000+0  52906-4 0  9991
2 65576  81.3018 340.9473 0006823 105.0182 255.1729 13.82768175 43161
PRAETORIAN SDA_614      
1 65577U 25203N   26200.62158795  .00000050  00000+0  33360-4 0  9998
2 65577  81.3033 340.5202 0008283 102.9253 257.2830 13.84778862 43209
PRAETORIAN SDA_615      
1 65578U 25203P   26200.46191211  .00000112  00000+0  89507-4 0  9994
2 65578  81.3042 340.6526 0010170 103.1418 257.0874 13.84438651 43175
PRAETORIAN SDA_616      
1 65579U 25203Q   26200.46039584  .00000125  00000+0  10266-3 0  9998
2 65579  81.3082 341.2435 0006673 112.3049 247.8815 13.83270559 43140
PRAETORIAN SDA_617      
1 65580U 25203R   26200.62942900  .00000063  00000+0  46288-4 0  9998
2 65580  81.3056 340.9155 0008527 103.2440 256.9668 13.83152558 43170
PRAETORIAN SDA_618      
1 65581U 25203S   26200.50219524  .00000166  00000+0  13810-3 0  9993
2 65581  81.3038 340.5483 0010954 106.6071 253.6290 13.84225818 43182
PRAETORIAN SDA_619      
1 65582U 25203T   26200.55090950  .00000136  00000+0  11192-3 0  9997
2 65582  81.3065 340.8360 0009406 104.3173 255.9028 13.83805343 43807
PRAETORIAN SDA_620      
1 65583U 25203U   26200.44322111  .00000138  00000+0  11491-3 0  9997
2 65583  81.3051 340.9711 0008597 100.8193 259.3931 13.83207864 43150
PRAETORIAN SDA_621      
1 65584U 25203V   26200.62505689  .00000071  00000+0  53369-4 0  9998
2 65584  81.3039 340.6982 0008520  98.5378 261.6745 13.83804313 43182
PRAETORIAN SDA_601      
1 65585U 25203W   26200.46586369 -.00000346  00000+0 -32655-3 0  9996
2 65585  81.3063 341.1788 0006702 114.9520 245.2333 13.83170552 43140
VICTUS HAZE PUMA        
1 69646U 26142A   26200.25832431  .00001791  00000+0  82930-4 0  9997
2 69646  97.4459  97.5147 0026471 252.2212 107.6135 15.21137439  4542
